{
    "links": {
        "self": "http://www.neowsapp.com/rest/v1/neo/3836737?api_key=iIulBulltgU6a56xZRHN4H3l9WmuAYTsLGpBGhQ2"
    },
    "id": "3836737",
    "neo_reference_id": "3836737",
    "name": "(2018 XB1)",
    "designation": "2018 XB1",
    "nasa_jpl_url": "http://ssd.jpl.nasa.gov/sbdb.cgi?sstr=3836737",
    "absolute_magnitude_h": 22.9,
    "estimated_diameter": {
        "kilometers": {
            "estimated_diameter_min": 0.0699125232,
            "estimated_diameter_max": 0.1563291544
        },
        "meters": {
            "estimated_diameter_min": 69.9125232246,
            "estimated_diameter_max": 156.3291544087
        },
        "miles": {
            "estimated_diameter_min": 0.0434416145,
            "estimated_diameter_max": 0.097138403
        },
        "feet": {
            "estimated_diameter_min": 229.3718026961,
            "estimated_diameter_max": 512.8909429502
        }
    },
    "is_potentially_hazardous_asteroid": false,
    "close_approach_data": [
        {
            "close_approach_date": "2018-12-08",
            "close_approach_date_full": "2018-Dec-08 11:17",
            "epoch_date_close_approach": 1544267820000,
            "relative_velocity": {
                "kilometers_per_second": "12.0176210625",
                "kilometers_per_hour": "43263.4358249968",
                "miles_per_hour": "26882.2165547042"
            },
            "miss_distance": {
                "astronomical": "0.0611070378",
                "lunar": "23.7706377042",
                "kilometers": "9141482.696889486",
                "miles": "5680253.9509714668"
            },
            "orbiting_body": "Earth"
        }
    ],
    "orbital_data": {
        "orbit_id": "7",
        "orbit_determination_date": "2019-01-21 07:51:18",
        "first_observation_date": "2018-12-06",
        "last_observation_date": "2018-12-31",
        "data_arc_in_days": 25,
        "observations_used": 91,
        "orbit_uncertainty": "7",
        "minimum_orbit_intersection": ".0611057",
        "jupiter_tisserand_invariant": "3.200",
        "epoch_osculation": "2459000.5",
        "eccentricity": ".5853690373942988",
        "semi_major_axis": "2.440853622779789",
        "inclination": "15.86283291084624",
        "ascending_node_longitude": "262.6850035888114",
        "orbital_period": "1392.871430011563",
        "perihelion_distance": "1.012053487192797",
        "perihelion_argument": "152.6377168404275",
        "aphelion_distance": "3.86965375836678",
        "perihelion_time": "2458443.370444067244",
        "mean_anomaly": "143.9950851272231",
        "mean_motion": ".2584588873339239",
        "equinox": "J2000",
        "orbit_class": {
            "orbit_class_type": "APO",
            "orbit_class_description": "Near-Earth asteroid orbits which cross the Earth’s orbit similar to that of 1862 Apollo",
            "orbit_class_range": "a (semi-major axis) > 1.0 AU; q (perihelion) < 1.017 AU"
        }
    },
    "is_sentry_object": false
}